GLOBALSTAR M035         
1 25851U 99037A   25223.49524727 -.00000077  00000+0 -48664-3 0  9999
2 25851  51.9950 291.6280 0013580  72.6933 300.7632 11.04539084102376
GLOBALSTAR M032         
1 25852U 99037B   25223.35532409 -.00000057  00000+0  29957-3 0  9992
2 25852  51.9950 113.3281 0011777 260.7330  99.2138 11.19062315140967
GLOBALSTAR M051         
1 25853U 99037C   25223.36268829 -.00000057  00000+0  35782-3 0  9999
2 25853  51.9778 267.7916 0000364 298.1509  61.9265 11.42204949138699
GLOBALSTAR M030         
1 25854U 99037D   25223.29299218 -.00000051  00000+0  51646-3 0  9999
2 25854  51.9880  70.5578 0003496 132.8664 227.2447 11.55112757156411
GLOBALSTAR M048         
1 25872U 99041A   25223.41722087 -.00000084  00000+0 -38316-3 0  9999
2 25872  51.9335 204.8257 0013653 281.4463 248.6364 11.33858536131243
GLOBALSTAR M026         
1 25873U 99041B   25223.50422485  .00000052  00000+0  42754-2 0  9992
2 25873  52.0022  48.9791 0002058  26.9916  13.9305 11.06847811154619
GLOBALSTAR M043         
1 25874U 99041C   25223.57539779 -.00000068  00000+0  15838-4 0  9998
2 25874  51.9425 314.3050 0013393  48.4889 324.6966 11.25694653129112
